[{"OBJECT_NAME":"TIANHUI 6A","OBJECT_ID":"2023-030A","EPOCH":"2026-03-09T23:27:00.729792","MEAN_MOTION":14.01332353,"ECCENTRICITY":0.00012385,"INCLINATION":99.0142,"RA_OF_ASC_NODE":78.4448,"ARG_OF_PERICENTER":173.8097,"MEAN_ANOMALY":186.3084,"EPHEMERIS_TYPE":0,"CLASSIFICATION_TYPE":"U","NORAD_CAT_ID":55836,"ELEMENT_SET_NO":999,"REV_AT_EPOCH":15350,"BSTAR":-9.2358714e-5,"MEAN_MOTION_DOT":-1.83e-6,"MEAN_MOTION_DDOT":0},{"OBJECT_NAME":"METEOR 2-2","OBJECT_ID":"1977-002A","EPOCH":"2026-03-09T20:13:41.006208","MEAN_MOTION":14.04207498,"ECCENTRICITY":0.00094555,"INCLINATION":81.2673,"RA_OF_ASC_NODE":189.5344,"ARG_OF_PERICENTER":269.6525,"MEAN_ANOMALY":90.3559,"EPHEMERIS_TYPE":0,"CLASSIFICATION_TYPE":"U","NORAD_CAT_ID":9661,"ELEMENT_SET_NO":999,"REV_AT_EPOCH":51639,"BSTAR":7.3683808e-5,"MEAN_MOTION_DOT":1.29e-6,"MEAN_MOTION_DDOT":0}]
